{
  "type": "FeatureCollection",
  "features": [
    {
      "type": "Feature",
      "properties": {
        "norad_id": 34765,
        "name": "IRIDIUM 33 DEB",
        "group": "iridium-33-debris",
        "lat": -84.79260883995529,
        "lon": -9.89629610055078,
        "alt_km": 756.9700555243044,
        "timestamp": "2025-12-08T03:50:07.381672+00:00",
        "meta_object_name": "IRIDIUM 33 DEB",
        "meta_object_id": "1997-051LJ",
        "meta_epoch": "2025-12-07T03:21:49.403232",
        "meta_mean_motion": 14.40442666,
        "meta_eccentricity": 0.00149367,
        "meta_inclination": 86.3394,
        "meta_ra_of_asc_node": 35.1639,
        "meta_arg_of_pericenter": 231.7841,
        "meta_mean_anomaly": 157.6535,
        "meta_ephemeris_type": 0,
        "meta_classification_type": "U",
        "meta_norad_cat_id": 34765,
        "meta_element_set_no": 999,
        "meta_rev_at_epoch": 87533,
        "meta_bstar": 0.00072141462,
        "meta_mean_motion_dot": 2.313e-05,
        "meta_mean_motion_ddot": 0,
        "tle_line1": "1 34765U 97051LJ  25341.14015513  .00002313  00000+0  72141-3 0  9998",
        "tle_line2": "2 34765  86.3394  35.1639 0014936 231.7841 157.6535 14.40442666875331"
      },
      "geometry": {
        "type": "Point",
        "coordinates": [
          -9.89629610055078,
          -84.79260883995529
        ]
      }
    },
    {
      "type": "Feature",
      "properties": {
        "norad_id": 34833,
        "name": "IRIDIUM 33 DEB",
        "group": "iridium-33-debris",
        "lat": -3.5571986070331487,
        "lon": -126.80736295499213,
        "alt_km": 716.5442936967493,
        "timestamp": "2025-12-08T03:50:07.381682+00:00",
        "meta_object_name": "IRIDIUM 33 DEB",
        "meta_object_id": "1997-051MH",
        "meta_epoch": "2025-12-07T03:56:41.928288",
        "meta_mean_motion": 14.52325542,
        "meta_eccentricity": 0.0021724,
        "meta_inclination": 86.3933,
        "meta_ra_of_asc_node": 53.3968,
        "meta_arg_of_pericenter": 115.6412,
        "meta_mean_anomaly": 266.3955,
        "meta_ephemeris_type": 0,
        "meta_classification_type": "U",
        "meta_norad_cat_id": 34833,
        "meta_element_set_no": 999,
        "meta_rev_at_epoch": 87634,
        "meta_bstar": 0.0013142121,
        "meta_mean_motion_dot": 5.381e-05,
        "meta_mean_motion_ddot": 0,
        "tle_line1": "1 34833U 97051MH  25341.16437417  .00005381  00000+0  13142-2 0  9990",
        "tle_line2": "2 34833  86.3933  53.3968 0021724 115.6412 266.3955 14.52325542876342"
      },
      "geometry": {
        "type": "Point",
        "coordinates": [
          -126.80736295499213,
          -3.5571986070331487
        ]
      }
    },
    {
      "type": "Feature",
      "properties": {
        "norad_id": 34870,
        "name": "IRIDIUM 33 DEB",
        "group": "iridium-33-debris",
        "lat": 59.78277385148259,
        "lon": 129.8191737513341,
        "alt_km": 633.4697858871941,
        "timestamp": "2025-12-08T03:50:07.381692+00:00",
        "meta_object_name": "IRIDIUM 33 DEB",
        "meta_object_id": "1997-051MQ",
        "meta_epoch": "2025-12-07T06:26:26.157120",
        "meta_mean_motion": 14.76261157,
        "meta_eccentricity": 0.00154427,
        "meta_inclination": 86.3101,
        "meta_ra_of_asc_node": 316.5889,
        "meta_arg_of_pericenter": 203.0792,
        "meta_mean_anomaly": 222.4695,
        "meta_ephemeris_type": 0,
        "meta_classification_type": "U",
        "meta_norad_cat_id": 34870,
        "meta_element_set_no": 999,
        "meta_rev_at_epoch": 88830,
        "meta_bstar": 0.0023910743,
        "meta_mean_motion_dot": 0.00016637,
        "meta_mean_motion_ddot": 0,
        "tle_line1": "1 34870U 97051MQ  25341.26835830  .00016637  00000+0  23911-2 0  9994",
        "tle_line2": "2 34870  86.3101 316.5889 0015442 203.0792 222.4695 14.76261157888309"
      },
      "geometry": {
        "type": "Point",
        "coordinates": [
          129.8191737513341,
          59.78277385148259
        ]
      }
    },
    {
      "type": "Feature",
      "properties": {
        "norad_id": 34896,
        "name": "IRIDIUM 33 DEB",
        "group": "iridium-33-debris",
        "lat": 52.25092348334443,
        "lon": 143.98212627398988,
        "alt_km": 672.6412756372247,
        "timestamp": "2025-12-08T03:50:07.381703+00:00",
        "meta_object_name": "IRIDIUM 33 DEB",
        "meta_object_id": "1997-051MY",
        "meta_epoch": "2025-12-05T17:05:39.506784",
        "meta_mean_motion": 14.66164731,
        "meta_eccentricity": 0.00238307,
        "meta_inclination": 86.3282,
        "meta_ra_of_asc_node": 329.837,
        "meta_arg_of_pericenter": 240.5839,
        "meta_mean_anomaly": 296.7988,
        "meta_ephemeris_type": 0,
        "meta_classification_type": "U",
        "meta_norad_cat_id": 34896,
        "meta_element_set_no": 999,
        "meta_rev_at_epoch": 87516,
        "meta_bstar": 0.0016597268,
        "meta_mean_motion_dot": 9.189e-05,
        "meta_mean_motion_ddot": 0,
        "tle_line1": "1 34896U 97051MY  25339.71226281  .00009189  00000+0  16597-2 0  9999",
        "tle_line2": "2 34896  86.3282 329.8370 0023830 240.5839 296.7988 14.66164731875165"
      },
      "geometry": {
        "type": "Point",
        "coordinates": [
          143.98212627398988,
          52.25092348334443
        ]
      }
    },
    {
      "type": "Feature",
      "properties": {
        "norad_id": 34926,
        "name": "IRIDIUM 33 DEB",
        "group": "iridium-33-debris",
        "lat": 52.45346227151979,
        "lon": 15.44747803706741,
        "alt_km": 720.3436727158542,
        "timestamp": "2025-12-08T03:50:07.381713+00:00",
        "meta_object_name": "IRIDIUM 33 DEB",
        "meta_object_id": "1997-051NF",
        "meta_epoch": "2025-12-06T20:46:22.255104",
        "meta_mean_motion": 14.54012124,
        "meta_eccentricity": 0.00763819,
        "meta_inclination": 86.1315,
        "meta_ra_of_asc_node": 10.9966,
        "meta_arg_of_pericenter": 312.8142,
        "meta_mean_anomaly": 168.3401,
        "meta_ephemeris_type": 0,
        "meta_classification_type": "U",
        "meta_norad_cat_id": 34926,
        "meta_element_set_no": 999,
        "meta_rev_at_epoch": 86371,
        "meta_bstar": 0.0091084702,
        "meta_mean_motion_dot": 0.00040121,
        "meta_mean_motion_ddot": 0,
        "tle_line1": "1 34926U 97051NF  25340.86553536  .00040121  00000+0  91085-2 0  9993",
        "tle_line2": "2 34926  86.1315  10.9966 0076381 312.8142 168.3401 14.54012124863719"
      },
      "geometry": {
        "type": "Point",
        "coordinates": [
          15.44747803706741,
          52.45346227151979
        ]
      }
    },
    {
      "type": "Feature",
      "properties": {
        "norad_id": 34985,
        "name": "IRIDIUM 33 DEB",
        "group": "iridium-33-debris",
        "lat": 18.533513219186922,
        "lon": 60.05329601211379,
        "alt_km": 763.7467993795926,
        "timestamp": "2025-12-08T03:50:07.381723+00:00",
        "meta_object_name": "IRIDIUM 33 DEB",
        "meta_object_id": "1997-051NR",
        "meta_epoch": "2025-12-06T11:52:01.102944",
        "meta_mean_motion": 14.41968492,
        "meta_eccentricity": 0.00201435,
        "meta_inclination": 86.3705,
        "meta_ra_of_asc_node": 59.544,
        "meta_arg_of_pericenter": 241.43,
        "meta_mean_anomaly": 137.5894,
        "meta_ephemeris_type": 0,
        "meta_classification_type": "U",
        "meta_norad_cat_id": 34985,
        "meta_element_set_no": 999,
        "meta_rev_at_epoch": 87085,
        "meta_bstar": 0.0014027,
        "meta_mean_motion_dot": 4.627e-05,
        "meta_mean_motion_ddot": 0,
        "tle_line1": "1 34985U 97051NR  25340.49445721  .00004627  00000+0  14027-2 0  9995",
        "tle_line2": "2 34985  86.3705  59.5440 0020143 241.4300 137.5894 14.41968492870854"
      },
      "geometry": {
        "type": "Point",
        "coordinates": [
          60.05329601211379,
          18.533513219186922
        ]
      }
    },
    {
      "type": "Feature",
      "properties": {
        "norad_id": 35051,
        "name": "IRIDIUM 33 DEB",
        "group": "iridium-33-debris",
        "lat": -39.40832682738031,
        "lon": -166.11389926056293,
        "alt_km": 743.652415274094,
        "timestamp": "2025-12-08T03:50:07.381733+00:00",
        "meta_object_name": "IRIDIUM 33 DEB",
        "meta_object_id": "1997-051NX",
        "meta_epoch": "2025-12-05T08:27:53.565120",
        "meta_mean_motion": 14.47546386,
        "meta_eccentricity": 0.00106363,
        "meta_inclination": 86.3242,
        "meta_ra_of_asc_node": 12.0813,
        "meta_arg_of_pericenter": 111.2483,
        "meta_mean_anomaly": 248.9857,
        "meta_ephemeris_type": 0,
        "meta_classification_type": "U",
        "meta_norad_cat_id": 35051,
        "meta_element_set_no": 999,
        "meta_rev_at_epoch": 86889,
        "meta_bstar": 0.0012192117,
        "meta_mean_motion_dot": 4.506e-05,
        "meta_mean_motion_ddot": 0,
        "tle_line1": "1 35051U 97051NX  25339.35270330  .00004506  00000+0  12192-2 0  9992",
        "tle_line2": "2 35051  86.3242  12.0813 0010636 111.2483 248.9857 14.47546386868892"
      },
      "geometry": {
        "type": "Point",
        "coordinates": [
          -166.11389926056293,
          -39.40832682738031
        ]
      }
    }
  ]
}